STARLINK-30494          
1 57970U 23151G   26068.36049035 -.00001272  00000+0 -35691-4 0  9993
2 57970  43.0027 192.4566 0001155 241.5536 118.5200 15.28417441137406
STARLINK-31805          
1 59745U 24090R   26067.37766713 -.00000349  00000+0 -31871-5 0  9998
2 59745  42.9984 190.5453 0000821 280.8207  79.2552 15.27574915103249
